CCSDS_OMM_VERS = 2.0
CREATION_DATE  = 
ORIGINATOR     = 

OBJECT_NAME    = ATLAS CENTAUR 2
OBJECT_ID      = 1963-047A
CENTER_NAME    = EARTH
REF_FRAME      = TEME
TIME_SYSTEM    = UTC
MEAN_ELEMENT_THEORY = SGP/SGP4

EPOCH          = 2025-12-22T20:04:06.352032
MEAN_MOTION    = 14.11802115
ECCENTRICITY   = .0548751
INCLINATION    = 30.3529
RA_OF_ASC_NODE = 265.0611
ARG_OF_PERICENTER = 123.1169
MEAN_ANOMALY   = 242.3319

EPHEMERIS_TYPE = 0
CLASSIFICATION_TYPE = U
NORAD_CAT_ID   = 694
ELEMENT_SET_NO = 999
REV_AT_EPOCH   = 12075
BSTAR          = .22028E-3
MEAN_MOTION_DOT = .1887E-4
MEAN_MOTION_DDOT = 0

CCSDS_OMM_VERS = 2.0
CREATION_DATE  = 
ORIGINATOR     = 

OBJECT_NAME    = THOR AGENA D R/B
OBJECT_ID      = 1964-002A
CENTER_NAME    = EARTH
REF_FRAME      = TEME
TIME_SYSTEM    = UTC
MEAN_ELEMENT_THEORY = SGP/SGP4

EPOCH          = 2025-12-22T11:47:08.738304
MEAN_MOTION    = 14.33965333
ECCENTRICITY   = .00337312
INCLINATION    = 99.1218
RA_OF_ASC_NODE = 0.6371
ARG_OF_PERICENTER = 122.3345
MEAN_ANOMALY   = 238.1112

EPHEMERIS_TYPE = 0
CLASSIFICATION_TYPE = U
NORAD_CAT_ID   = 733
ELEMENT_SET_NO = 999
REV_AT_EPOCH   = 22723
BSTAR          = .97103445E-4
MEAN_MOTION_DOT = .224E-5
MEAN_MOTION_DDOT = 0

CCSDS_OMM_VERS = 2.0
CREATION_DATE  = 
ORIGINATOR     = 

OBJECT_NAME    = SL-3 R/B
OBJECT_ID      = 1964-053B
CENTER_NAME    = EARTH
REF_FRAME      = TEME
TIME_SYSTEM    = UTC
MEAN_ELEMENT_THEORY = SGP/SGP4

EPOCH          = 2025-12-22T20:06:54.470016
MEAN_MOTION    = 14.61283032
ECCENTRICITY   = .0074708
INCLINATION    = 65.0748
RA_OF_ASC_NODE = 196.5318
ARG_OF_PERICENTER = 317.0298
MEAN_ANOMALY   = 42.4980

EPHEMERIS_TYPE = 0
CLASSIFICATION_TYPE = U
NORAD_CAT_ID   = 877
ELEMENT_SET_NO = 999
REV_AT_EPOCH   = 25556
BSTAR          = .51172E-4
MEAN_MOTION_DOT = .138E-5
MEAN_MOTION_DDOT = 0

CCSDS_OMM_VERS = 2.0
CREATION_DATE  = 
ORIGINATOR     = 

OBJECT_NAME    = SL-8 R/B
OBJECT_ID      = 1967-045B
CENTER_NAME    = EARTH
REF_FRAME      = TEME
TIME_SYSTEM    = UTC
MEAN_ELEMENT_THEORY = SGP/SGP4

EPOCH          = 2025-12-22T19:51:53.738784
MEAN_MOTION    = 14.45547008
ECCENTRICITY   = .0063796
INCLINATION    = 74.0106
RA_OF_ASC_NODE = 131.6255
ARG_OF_PERICENTER = 158.4690
MEAN_ANOMALY   = 201.9173

EPHEMERIS_TYPE = 0
CLASSIFICATION_TYPE = U
NORAD_CAT_ID   = 2802
ELEMENT_SET_NO = 999
REV_AT_EPOCH   = 7791
BSTAR          = .11599E-3
MEAN_MOTION_DOT = .392E-5
MEAN_MOTION_DDOT = 0

CCSDS_OMM_VERS = 2.0
CREATION_DATE  = 
ORIGINATOR     = 

OBJECT_NAME    = SL-8 R/B
OBJECT_ID      = 1968-040B
CENTER_NAME    = EARTH
REF_FRAME      = TEME
TIME_SYSTEM    = UTC
MEAN_ELEMENT_THEORY = SGP/SGP4

EPOCH          = 2025-12-22T10:16:04.821312
MEAN_MOTION    = 15.02590087
ECCENTRICITY   = .00259566
INCLINATION    = 74.0314
RA_OF_ASC_NODE = 111.4860
ARG_OF_PERICENTER = 311.3784
MEAN_ANOMALY   = 48.5172

EPHEMERIS_TYPE = 0
CLASSIFICATION_TYPE = U
NORAD_CAT_ID   = 3230
ELEMENT_SET_NO = 999
REV_AT_EPOCH   = 7840
BSTAR          = .25551364E-3
MEAN_MOTION_DOT = .3384E-4
MEAN_MOTION_DDOT = 0

CCSDS_OMM_VERS = 2.0
CREATION_DATE  = 
ORIGINATOR     = 

OBJECT_NAME    = OAO 2
OBJECT_ID      = 1968-110A
CENTER_NAME    = EARTH
REF_FRAME      = TEME
TIME_SYSTEM    = UTC
MEAN_ELEMENT_THEORY = SGP/SGP4

EPOCH          = 2025-12-21T16:30:12.241152
MEAN_MOTION    = 14.47249268
ECCENTRICITY   = .00060635
INCLINATION    = 34.9949
RA_OF_ASC_NODE = 340.7082
ARG_OF_PERICENTER = 289.3522
MEAN_ANOMALY   = 70.6513

EPHEMERIS_TYPE = 0
CLASSIFICATION_TYPE = U
NORAD_CAT_ID   = 3597
ELEMENT_SET_NO = 999
REV_AT_EPOCH   = 779
BSTAR          = .59840973E-4
MEAN_MOTION_DOT = .203E-5
MEAN_MOTION_DDOT = 0

CCSDS_OMM_VERS = 2.0
CREATION_DATE  = 
ORIGINATOR     = 

OBJECT_NAME    = ISIS 1
OBJECT_ID      = 1969-009A
CENTER_NAME    = EARTH
REF_FRAME      = TEME
TIME_SYSTEM    = UTC
MEAN_ELEMENT_THEORY = SGP/SGP4

EPOCH          = 2025-12-22T10:36:51.244992
MEAN_MOTION    = 11.30358700
ECCENTRICITY   = .17069922
INCLINATION    = 88.4490
RA_OF_ASC_NODE = 163.7349
ARG_OF_PERICENTER = 245.0881
MEAN_ANOMALY   = 96.3586

EPHEMERIS_TYPE = 0
CLASSIFICATION_TYPE = U
NORAD_CAT_ID   = 3669
ELEMENT_SET_NO = 999
REV_AT_EPOCH   = 33980
BSTAR          = .16144186E-3
MEAN_MOTION_DOT = .223E-5
MEAN_MOTION_DDOT = 0

CCSDS_OMM_VERS = 2.0
CREATION_DATE  = 
ORIGINATOR     = 

OBJECT_NAME    = SERT 2
OBJECT_ID      = 1970-009A
CENTER_NAME    = EARTH
REF_FRAME      = TEME
TIME_SYSTEM    = UTC
MEAN_ELEMENT_THEORY = SGP/SGP4

EPOCH          = 2025-12-22T19:41:14.790048
MEAN_MOTION    = 13.58719107
ECCENTRICITY   = .0005104
INCLINATION    = 99.2666
RA_OF_ASC_NODE = 299.1589
ARG_OF_PERICENTER = 11.2883
MEAN_ANOMALY   = 43.3766

EPHEMERIS_TYPE = 0
CLASSIFICATION_TYPE = U
NORAD_CAT_ID   = 4327
ELEMENT_SET_NO = 999
REV_AT_EPOCH   = 76945
BSTAR          = .94296E-4
MEAN_MOTION_DOT = .28E-6
MEAN_MOTION_DDOT = 0

CCSDS_OMM_VERS = 2.0
CREATION_DATE  = 
ORIGINATOR     = 

OBJECT_NAME    = SL-3 R/B
OBJECT_ID      = 1971-028B
CENTER_NAME    = EARTH
REF_FRAME      = TEME
TIME_SYSTEM    = UTC
MEAN_ELEMENT_THEORY = SGP/SGP4

EPOCH          = 2025-12-22T18:43:34.512384
MEAN_MOTION    = 15.55009368
ECCENTRICITY   = .0019193
INCLINATION    = 81.2380
RA_OF_ASC_NODE = 146.5713
ARG_OF_PERICENTER = 204.4591
MEAN_ANOMALY   = 155.5750

EPHEMERIS_TYPE = 0
CLASSIFICATION_TYPE = U
NORAD_CAT_ID   = 5118
ELEMENT_SET_NO = 999
REV_AT_EPOCH   = 97669
BSTAR          = .47041E-3
MEAN_MOTION_DOT = .31907E-3
MEAN_MOTION_DDOT = 0

CCSDS_OMM_VERS = 2.0
CREATION_DATE  = 
ORIGINATOR     = 

OBJECT_NAME    = ASTEX 1
OBJECT_ID      = 1971-089A
CENTER_NAME    = EARTH
REF_FRAME      = TEME
TIME_SYSTEM    = UTC
MEAN_ELEMENT_THEORY = SGP/SGP4

EPOCH          = 2025-12-22T15:18:41.583456
MEAN_MOTION    = 14.50653661
ECCENTRICITY   = .00151088
INCLINATION    = 92.7147
RA_OF_ASC_NODE = 126.8219
ARG_OF_PERICENTER = 353.3337
MEAN_ANOMALY   = 6.7665

EPHEMERIS_TYPE = 0
CLASSIFICATION_TYPE = U
NORAD_CAT_ID   = 5560
ELEMENT_SET_NO = 999
REV_AT_EPOCH   = 85113
BSTAR          = .12911842E-3
MEAN_MOTION_DOT = .506E-5
MEAN_MOTION_DDOT = 0

CCSDS_OMM_VERS = 2.0
CREATION_DATE  = 
ORIGINATOR     = 

OBJECT_NAME    = SL-8 R/B
OBJECT_ID      = 1971-119B
CENTER_NAME    = EARTH
REF_FRAME      = TEME
TIME_SYSTEM    = UTC
MEAN_ELEMENT_THEORY = SGP/SGP4

EPOCH          = 2025-12-22T03:53:32.101440
MEAN_MOTION    = 14.35950102
ECCENTRICITY   = .05586909
INCLINATION    = 73.8893
RA_OF_ASC_NODE = 320.4294
ARG_OF_PERICENTER = 302.8054
MEAN_ANOMALY   = 52.0450

EPHEMERIS_TYPE = 0
CLASSIFICATION_TYPE = U
NORAD_CAT_ID   = 5730
ELEMENT_SET_NO = 999
REV_AT_EPOCH   = 64435
BSTAR          = .66946352E-3
MEAN_MOTION_DOT = .12879E-3
MEAN_MOTION_DDOT = 0

CCSDS_OMM_VERS = 2.0
CREATION_DATE  = 
ORIGINATOR     = 

OBJECT_NAME    = OAO 3 (COPERNICUS)
OBJECT_ID      = 1972-065A
CENTER_NAME    = EARTH
REF_FRAME      = TEME
TIME_SYSTEM    = UTC
MEAN_ELEMENT_THEORY = SGP/SGP4

EPOCH          = 2025-12-22T19:39:21.090240
MEAN_MOTION    = 14.59914651
ECCENTRICITY   = .0007201
INCLINATION    = 35.0071
RA_OF_ASC_NODE = 15.2500
ARG_OF_PERICENTER = 252.8570
MEAN_ANOMALY   = 274.0057

EPHEMERIS_TYPE = 0
CLASSIFICATION_TYPE = U
NORAD_CAT_ID   = 6153
ELEMENT_SET_NO = 999
REV_AT_EPOCH   = 83495
BSTAR          = .75536E-4
MEAN_MOTION_DOT = .346E-5
MEAN_MOTION_DDOT = 0

