ATLAS CENTAUR 2         
1 00694U 63047A   25356.83618463  .00001887  00000+0  22028-3 0  9999
2 00694  30.3529 265.0611 0548751 123.1169 242.3319 14.11802115120750
THOR AGENA D R/B        
1 00733U 64002A   25356.49107336  .00000224  00000+0  97103-4 0  9990
2 00733  99.1218   0.6371 0033731 122.3345 238.1112 14.33965333227233
SL-3 R/B                
1 00877U 64053B   25356.83813044  .00000138  00000+0  51172-4 0  9993
2 00877  65.0748 196.5318 0074708 317.0298  42.4980 14.61283032255563
SL-8 R/B                
1 02802U 67045B   25356.82770531  .00000392  00000+0  11599-3 0  9999
2 02802  74.0106 131.6255 0063796 158.4690 201.9173 14.45547008 77914
SL-8 R/B                
1 03230U 68040B   25356.42783358  .00003384  00000+0  25551-3 0  9995
2 03230  74.0314 111.4860 0025956 311.3784  48.5172 15.02590087 78407
OAO 2                   
1 03597U 68110A   25355.68764168  .00000203  00000+0  59841-4 0  9991
2 03597  34.9949 340.7082 0006063 289.3522  70.6513 14.47249268  7796
ISIS 1                  
1 03669U 69009A   25356.44225978  .00000223  00000+0  16144-3 0  9995
2 03669  88.4490 163.7349 1706992 245.0881  96.3586 11.30358700339802
SERT 2                  
1 04327U 70009A   25356.82031007  .00000028  00000+0  94296-4 0  9997
2 04327  99.2666 299.1589 0005104  11.2883  43.3766 13.58719107769454
SL-3 R/B                
1 05118U 71028B   25356.78026056  .00031907  00000+0  47041-3 0  9996
2 05118  81.2380 146.5713 0019193 204.4591 155.5750 15.55009368976691
ASTEX 1                 
1 05560U 71089A   25356.63798129  .00000506  00000+0  12912-3 0  9995
2 05560  92.7147 126.8219 0015108 353.3337   6.7665 14.50653661851134
SL-8 R/B                
1 05730U 71119B   25356.16217710  .00012879  00000+0  66946-3 0  9990
2 05730  73.8893 320.4294 0558690 302.8054  52.0450 14.35950102644352
OAO 3 (COPERNICUS)      
1 06153U 72065A   25356.81899410  .00000346  00000+0  75536-4 0  9998
2 06153  35.0071  15.2500 0007201 252.8570 274.0057 14.59914651834954
